<?xml version="1.0" encoding="UTF-8"?>
<ndm xmlns:xsi="http://www.w3.org/2001/XMLSchema-instance" xsi:noNamespaceSchemaLocation="https://sanaregistry.org/r/ndmxml_unqualified/ndmxml-2.0.0-master-2.0.xsd">
<omm id="CCSDS_OMM_VERS" version="2.0">
<header><CREATION_DATE/><ORIGINATOR/></header><body><segment><metadata><OBJECT_NAME>ORBCOMM FM24</OBJECT_NAME><OBJECT_ID>1998-053D</OBJECT_ID><CENTER_NAME>EARTH</CENTER_NAME><REF_FRAME>TEME</REF_FRAME><TIME_SYSTEM>UTC</TIME_SYSTEM><MEAN_ELEMENT_THEORY>SGP4</MEAN_ELEMENT_THEORY></metadata><data><meanElements><EPOCH>2024-05-18T21:40:07.923072</EPOCH><MEAN_MOTION>14.35724386</MEAN_MOTION><ECCENTRICITY>.0001076</ECCENTRICITY><INCLINATION>45.0091</INCLINATION><RA_OF_ASC_NODE>335.1683</RA_OF_ASC_NODE><ARG_OF_PERICENTER>75.5195</ARG_OF_PERICENTER><MEAN_ANOMALY>284.5772</MEAN_ANOMALY></meanElements><tleParameters><EPHEMERIS_TYPE>0</EPHEMERIS_TYPE><CLASSIFICATION_TYPE>U</CLASSIFICATION_TYPE><NORAD_CAT_ID>25478</NORAD_CAT_ID><ELEMENT_SET_NO>999</ELEMENT_SET_NO><REV_AT_EPOCH>34073</REV_AT_EPOCH><BSTAR>.13293E-2</BSTAR><MEAN_MOTION_DOT>.3736E-4</MEAN_MOTION_DOT><MEAN_MOTION_DDOT>0</MEAN_MOTION_DDOT></tleParameters></data></segment></body></omm>
<omm id="CCSDS_OMM_VERS" version="2.0">
<header><CREATION_DATE/><ORIGINATOR/></header><body><segment><metadata><OBJECT_NAME>ORBCOMM FM25</OBJECT_NAME><OBJECT_ID>1998-053E</OBJECT_ID><CENTER_NAME>EARTH</CENTER_NAME><REF_FRAME>TEME</REF_FRAME><TIME_SYSTEM>UTC</TIME_SYSTEM><MEAN_ELEMENT_THEORY>SGP4</MEAN_ELEMENT_THEORY></metadata><data><meanElements><EPOCH>2024-05-18T22:31:58.682496</EPOCH><MEAN_MOTION>14.35705245</MEAN_MOTION><ECCENTRICITY>.000365</ECCENTRICITY><INCLINATION>45.0079</INCLINATION><RA_OF_ASC_NODE>333.2427</RA_OF_ASC_NODE><ARG_OF_PERICENTER>79.7852</ARG_OF_PERICENTER><MEAN_ANOMALY>280.3407</MEAN_ANOMALY></meanElements><tleParameters><EPHEMERIS_TYPE>0</EPHEMERIS_TYPE><CLASSIFICATION_TYPE>U</CLASSIFICATION_TYPE><NORAD_CAT_ID>25479</NORAD_CAT_ID><ELEMENT_SET_NO>999</ELEMENT_SET_NO><REV_AT_EPOCH>34103</REV_AT_EPOCH><BSTAR>.14573E-2</BSTAR><MEAN_MOTION_DOT>.4109E-4</MEAN_MOTION_DOT><MEAN_MOTION_DDOT>0</MEAN_MOTION_DDOT></tleParameters></data></segment></body></omm>
<omm id="CCSDS_OMM_VERS" version="2.0">
<header><CREATION_DATE/><ORIGINATOR/></header><body><segment><metadata><OBJECT_NAME>ORBCOMM FM26</OBJECT_NAME><OBJECT_ID>1998-053F</OBJECT_ID><CENTER_NAME>EARTH</CENTER_NAME><REF_FRAME>TEME</REF_FRAME><TIME_SYSTEM>UTC</TIME_SYSTEM><MEAN_ELEMENT_THEORY>SGP4</MEAN_ELEMENT_THEORY></metadata><data><meanElements><EPOCH>2024-05-18T21:05:48.753600</EPOCH><MEAN_MOTION>14.35140811</MEAN_MOTION><ECCENTRICITY>.0005819</ECCENTRICITY><INCLINATION>45.0075</INCLINATION><RA_OF_ASC_NODE>327.6791</RA_OF_ASC_NODE><ARG_OF_PERICENTER>98.2240</ARG_OF_PERICENTER><MEAN_ANOMALY>261.9268</MEAN_ANOMALY></meanElements><tleParameters><EPHEMERIS_TYPE>0</EPHEMERIS_TYPE><CLASSIFICATION_TYPE>U</CLASSIFICATION_TYPE><NORAD_CAT_ID>25480</NORAD_CAT_ID><ELEMENT_SET_NO>999</ELEMENT_SET_NO><REV_AT_EPOCH>34096</REV_AT_EPOCH><BSTAR>.11349E-2</BSTAR><MEAN_MOTION_DOT>.3131E-4</MEAN_MOTION_DOT><MEAN_MOTION_DDOT>0</MEAN_MOTION_DDOT></tleParameters></data></segment></body></omm>
<omm id="CCSDS_OMM_VERS" version="2.0">
<header><CREATION_DATE/><ORIGINATOR/></header><body><segment><metadata><OBJECT_NAME>ORBCOMM FM27</OBJECT_NAME><OBJECT_ID>1998-053G</OBJECT_ID><CENTER_NAME>EARTH</CENTER_NAME><REF_FRAME>TEME</REF_FRAME><TIME_SYSTEM>UTC</TIME_SYSTEM><MEAN_ELEMENT_THEORY>SGP4</MEAN_ELEMENT_THEORY></metadata><data><meanElements><EPOCH>2024-05-18T20:34:47.038368</EPOCH><MEAN_MOTION>14.35688847</MEAN_MOTION><ECCENTRICITY>.000073</ECCENTRICITY><INCLINATION>45.0063</INCLINATION><RA_OF_ASC_NODE>333.8914</RA_OF_ASC_NODE><ARG_OF_PERICENTER>188.5710</ARG_OF_PERICENTER><MEAN_ANOMALY>171.5125</MEAN_ANOMALY></meanElements><tleParameters><EPHEMERIS_TYPE>0</EPHEMERIS_TYPE><CLASSIFICATION_TYPE>U</CLASSIFICATION_TYPE><NORAD_CAT_ID>25481</NORAD_CAT_ID><ELEMENT_SET_NO>999</ELEMENT_SET_NO><REV_AT_EPOCH>34095</REV_AT_EPOCH><BSTAR>.14789E-2</BSTAR><MEAN_MOTION_DOT>.417E-4</MEAN_MOTION_DOT><MEAN_MOTION_DDOT>0</MEAN_MOTION_DDOT></tleParameters></data></segment></body></omm>
<omm id="CCSDS_OMM_VERS" version="2.0">
<header><CREATION_DATE/><ORIGINATOR/></header><body><segment><metadata><OBJECT_NAME>ORBCOMM FM28</OBJECT_NAME><OBJECT_ID>1998-053H</OBJECT_ID><CENTER_NAME>EARTH</CENTER_NAME><REF_FRAME>TEME</REF_FRAME><TIME_SYSTEM>UTC</TIME_SYSTEM><MEAN_ELEMENT_THEORY>SGP4</MEAN_ELEMENT_THEORY></metadata><data><meanElements><EPOCH>2024-05-18T15:11:10.616064</EPOCH><MEAN_MOTION>14.36122929</MEAN_MOTION><ECCENTRICITY>.0004003</ECCENTRICITY><INCLINATION>45.0051</INCLINATION><RA_OF_ASC_NODE>273.3916</RA_OF_ASC_NODE><ARG_OF_PERICENTER>143.1243</ARG_OF_PERICENTER><MEAN_ANOMALY>216.9880</MEAN_ANOMALY></meanElements><tleParameters><EPHEMERIS_TYPE>0</EPHEMERIS_TYPE><CLASSIFICATION_TYPE>U</CLASSIFICATION_TYPE><NORAD_CAT_ID>25482</NORAD_CAT_ID><ELEMENT_SET_NO>999</ELEMENT_SET_NO><REV_AT_EPOCH>34159</REV_AT_EPOCH><BSTAR>.14818E-2</BSTAR><MEAN_MOTION_DOT>.4217E-4</MEAN_MOTION_DOT><MEAN_MOTION_DDOT>0</MEAN_MOTION_DDOT></tleParameters></data></segment></body></omm>
<omm id="CCSDS_OMM_VERS" version="2.0">
<header><CREATION_DATE/><ORIGINATOR/></header><body><segment><metadata><OBJECT_NAME>ORBCOMM FM30</OBJECT_NAME><OBJECT_ID>1999-065A</OBJECT_ID><CENTER_NAME>EARTH</CENTER_NAME><REF_FRAME>TEME</REF_FRAME><TIME_SYSTEM>UTC</TIME_SYSTEM><MEAN_ELEMENT_THEORY>SGP4</MEAN_ELEMENT_THEORY></metadata><data><meanElements><EPOCH>2024-05-18T21:49:58.327104</EPOCH><MEAN_MOTION>14.35274682</MEAN_MOTION><ECCENTRICITY>.00064</ECCENTRICITY><INCLINATION>45.0298</INCLINATION><RA_OF_ASC_NODE>153.0692</RA_OF_ASC_NODE><ARG_OF_PERICENTER>213.6232</ARG_OF_PERICENTER><MEAN_ANOMALY>146.4210</MEAN_ANOMALY></meanElements><tleParameters><EPHEMERIS_TYPE>0</EPHEMERIS_TYPE><CLASSIFICATION_TYPE>U</CLASSIFICATION_TYPE><NORAD_CAT_ID>25980</NORAD_CAT_ID><ELEMENT_SET_NO>999</ELEMENT_SET_NO><REV_AT_EPOCH>27776</REV_AT_EPOCH><BSTAR>.10148E-2</BSTAR><MEAN_MOTION_DOT>.2793E-4</MEAN_MOTION_DOT><MEAN_MOTION_DDOT>0</MEAN_MOTION_DDOT></tleParameters></data></segment></body></omm>
<omm id="CCSDS_OMM_VERS" version="2.0">
<header><CREATION_DATE/><ORIGINATOR/></header><body><segment><metadata><OBJECT_NAME>ORBCOMM FM31</OBJECT_NAME><OBJECT_ID>1999-065B</OBJECT_ID><CENTER_NAME>EARTH</CENTER_NAME><REF_FRAME>TEME</REF_FRAME><TIME_SYSTEM>UTC</TIME_SYSTEM><MEAN_ELEMENT_THEORY>SGP4</MEAN_ELEMENT_THEORY></metadata><data><meanElements><EPOCH>2024-05-18T17:39:54.124704</EPOCH><MEAN_MOTION>14.35273610</MEAN_MOTION><ECCENTRICITY>.0004524</ECCENTRICITY><INCLINATION>45.0211</INCLINATION><RA_OF_ASC_NODE>147.5743</RA_OF_ASC_NODE><ARG_OF_PERICENTER>244.0558</ARG_OF_PERICENTER><MEAN_ANOMALY>115.9823</MEAN_ANOMALY></meanElements><tleParameters><EPHEMERIS_TYPE>0</EPHEMERIS_TYPE><CLASSIFICATION_TYPE>U</CLASSIFICATION_TYPE><NORAD_CAT_ID>25981</NORAD_CAT_ID><ELEMENT_SET_NO>999</ELEMENT_SET_NO><REV_AT_EPOCH>27729</REV_AT_EPOCH><BSTAR>.99421E-3</BSTAR><MEAN_MOTION_DOT>.2733E-4</MEAN_MOTION_DOT><MEAN_MOTION_DDOT>0</MEAN_MOTION_DDOT></tleParameters></data></segment></body></omm>
<omm id="CCSDS_OMM_VERS" version="2.0">
<header><CREATION_DATE/><ORIGINATOR/></header><body><segment><metadata><OBJECT_NAME>ORBCOMM FM32</OBJECT_NAME><OBJECT_ID>1999-065C</OBJECT_ID><CENTER_NAME>EARTH</CENTER_NAME><REF_FRAME>TEME</REF_FRAME><TIME_SYSTEM>UTC</TIME_SYSTEM><MEAN_ELEMENT_THEORY>SGP4</MEAN_ELEMENT_THEORY></metadata><data><meanElements><EPOCH>2024-05-18T19:01:55.920576</EPOCH><MEAN_MOTION>14.34277336</MEAN_MOTION><ECCENTRICITY>.0006826</ECCENTRICITY><INCLINATION>45.0138</INCLINATION><RA_OF_ASC_NODE>161.1718</RA_OF_ASC_NODE><ARG_OF_PERICENTER>236.3302</ARG_OF_PERICENTER><MEAN_ANOMALY>123.6894</MEAN_ANOMALY></meanElements><tleParameters><EPHEMERIS_TYPE>0</EPHEMERIS_TYPE><CLASSIFICATION_TYPE>U</CLASSIFICATION_TYPE><NORAD_CAT_ID>25982</NORAD_CAT_ID><ELEMENT_SET_NO>999</ELEMENT_SET_NO><REV_AT_EPOCH>27793</REV_AT_EPOCH><BSTAR>.10782E-2</BSTAR><MEAN_MOTION_DOT>.2915E-4</MEAN_MOTION_DOT><MEAN_MOTION_DDOT>0</MEAN_MOTION_DDOT></tleParameters></data></segment></body></omm>

</ndm>
