ORBCOMM FM24            
1 25478U 98053D   24139.90286948  .00003736  00000+0  13293-2 0  9994
2 25478  45.0091 335.1683 0001076  75.5195 284.5772 14.35724386340737
ORBCOMM FM25            
1 25479U 98053E   24139.93887364  .00004109  00000+0  14573-2 0  9994
2 25479  45.0079 333.2427 0003650  79.7852 280.3407 14.35705245341031
ORBCOMM FM26            
1 25480U 98053F   24139.87903650  .00003131  00000+0  11349-2 0  9998
2 25480  45.0075 327.6791 0005819  98.2240 261.9268 14.35140811340969
ORBCOMM FM27            
1 25481U 98053G   24139.85748887  .00004170  00000+0  14789-2 0  9991
2 25481  45.0063 333.8914 0000730 188.5710 171.5125 14.35688847340958
ORBCOMM FM28            
1 25482U 98053H   24139.63276176  .00004217  00000+0  14818-2 0  9990
2 25482  45.0051 273.3916 0004003 143.1243 216.9880 14.36122929341599
ORBCOMM FM30            
1 25980U 99065A   24139.90970286  .00002793  00000+0  10148-2 0  9999
2 25980  45.0298 153.0692 0006400 213.6232 146.4210 14.35274682277768
ORBCOMM FM31            
1 25981U 99065B   24139.73604311  .00002733  00000+0  99421-3 0  9990
2 25981  45.0211 147.5743 0004524 244.0558 115.9823 14.35273610277292
ORBCOMM FM32            
1 25982U 99065C   24139.79300834  .00002915  00000+0  10782-2 0  9994
2 25982  45.0138 161.1718 0006826 236.3302 123.6894 14.34277336277936
